{
  "type": "FeatureCollection",
  "features": [
    {
      "type": "Feature",
      "properties": {
        "norad_id": 66907,
        "name": "1998-067XT",
        "group": "last-30-days",
        "lat": 29.757622166797493,
        "lon": -50.85595752941411,
        "alt_km": 409.09380560326827,
        "timestamp": "2025-12-09T23:33:22.609944+00:00",
        "meta_object_name": "1998-067XT",
        "meta_object_id": "1998-067XT",
        "meta_epoch": "2025-12-09T12:07:37.114752",
        "meta_mean_motion": 15.50864429,
        "meta_eccentricity": 0.00048036,
        "meta_inclination": 51.6307,
        "meta_ra_of_asc_node": 158.4423,
        "meta_arg_of_pericenter": 208.5081,
        "meta_mean_anomaly": 151.5646,
        "meta_ephemeris_type": 0,
        "meta_classification_type": "U",
        "meta_norad_cat_id": 66907,
        "meta_element_set_no": 999,
        "meta_rev_at_epoch": 111,
        "meta_bstar": 0.0012921241,
        "meta_mean_motion_dot": 0.00076342,
        "meta_mean_motion_ddot": 0,
        "tle_line1": "1 66907U 98067XT  25343.50529068  .00076342  00000+0  12921-2 0  9998",
        "tle_line2": "2 66907  51.6307 158.4423 0004803 208.5081 151.5646 15.50864429  1113"
      },
      "geometry": {
        "type": "Point",
        "coordinates": [
          -50.85595752941411,
          29.757622166797493
        ]
      }
    },
    {
      "type": "Feature",
      "properties": {
        "norad_id": 66908,
        "name": "1998-067XU",
        "group": "last-30-days",
        "lat": 28.90976518027627,
        "lon": -49.87203083888343,
        "alt_km": 408.90718153290163,
        "timestamp": "2025-12-09T23:33:22.609955+00:00",
        "meta_object_name": "1998-067XU",
        "meta_object_id": "1998-067XU",
        "meta_epoch": "2025-12-09T15:12:54.016992",
        "meta_mean_motion": 15.50928353,
        "meta_eccentricity": 0.00050029,
        "meta_inclination": 51.6301,
        "meta_ra_of_asc_node": 157.8011,
        "meta_arg_of_pericenter": 207.486,
        "meta_mean_anomaly": 152.5865,
        "meta_ephemeris_type": 0,
        "meta_classification_type": "U",
        "meta_norad_cat_id": 66908,
        "meta_element_set_no": 999,
        "meta_rev_at_epoch": 113,
        "meta_bstar": 0.0012603324,
        "meta_mean_motion_dot": 0.00074609,
        "meta_mean_motion_ddot": 0,
        "tle_line1": "1 66908U 98067XU  25343.63395853  .00074609  00000+0  12603-2 0  9997",
        "tle_line2": "2 66908  51.6301 157.8011 0005002 207.4860 152.5865 15.50928353  1132"
      },
      "geometry": {
        "type": "Point",
        "coordinates": [
          -49.87203083888343,
          28.90976518027627
        ]
      }
    },
    {
      "type": "Feature",
      "properties": {
        "norad_id": 66909,
        "name": "SILVERSAT",
        "group": "last-30-days",
        "lat": 28.153856721559464,
        "lon": -49.014386319776,
        "alt_km": 408.8265620004986,
        "timestamp": "2025-12-09T23:33:22.609968+00:00",
        "meta_object_name": "SILVERSAT",
        "meta_object_id": "1998-067XV",
        "meta_epoch": "2025-12-09T15:12:39.386016",
        "meta_mean_motion": 15.5102294,
        "meta_eccentricity": 0.00048745,
        "meta_inclination": 51.6303,
        "meta_ra_of_asc_node": 157.7998,
        "meta_arg_of_pericenter": 209.5362,
        "meta_mean_anomaly": 150.5352,
        "meta_ephemeris_type": 0,
        "meta_classification_type": "U",
        "meta_norad_cat_id": 66909,
        "meta_element_set_no": 999,
        "meta_rev_at_epoch": 113,
        "meta_bstar": 0.0013732623,
        "meta_mean_motion_dot": 0.00081682,
        "meta_mean_motion_ddot": 0,
        "tle_line1": "1 66909U 98067XV  25343.63378919  .00081682  00000+0  13733-2 0  9996",
        "tle_line2": "2 66909  51.6303 157.7998 0004874 209.5362 150.5352 15.51022940  1131"
      },
      "geometry": {
        "type": "Point",
        "coordinates": [
          -49.014386319776,
          28.153856721559464
        ]
      }
    },
    {
      "type": "Feature",
      "properties": {
        "norad_id": 66910,
        "name": "1998-067XW",
        "group": "last-30-days",
        "lat": 23.2145721289218,
        "lon": -43.80849067532758,
        "alt_km": 407.4509632690897,
        "timestamp": "2025-12-09T23:33:22.609982+00:00",
        "meta_object_name": "1998-067XW",
        "meta_object_id": "1998-067XW",
        "meta_epoch": "2025-12-08T22:10:28.285536",
        "meta_mean_motion": 15.51111527,
        "meta_eccentricity": 0.0005924,
        "meta_inclination": 51.6296,
        "meta_ra_of_asc_node": 161.31,
        "meta_arg_of_pericenter": 189.6176,
        "meta_mean_anomaly": 170.4701,
        "meta_ephemeris_type": 0,
        "meta_classification_type": "U",
        "meta_norad_cat_id": 66910,
        "meta_element_set_no": 999,
        "meta_rev_at_epoch": 102,
        "meta_bstar": 0.0011826614,
        "meta_mean_motion_dot": 0.00070418,
        "meta_mean_motion_ddot": 0,
        "tle_line1": "1 66910U 98067XW  25342.92393849  .00070418  00000+0  11827-2 0  9995",
        "tle_line2": "2 66910  51.6296 161.3100 0005924 189.6176 170.4701 15.51111527  1025"
      },
      "geometry": {
        "type": "Point",
        "coordinates": [
          -43.80849067532758,
          23.2145721289218
        ]
      }
    },
    {
      "type": "Feature",
      "properties": {
        "norad_id": 66911,
        "name": "1998-067XX",
        "group": "last-30-days",
        "lat": 21.78082105231878,
        "lon": -42.40251783725069,
        "alt_km": 407.26416903891186,
        "timestamp": "2025-12-09T23:33:22.609993+00:00",
        "meta_object_name": "1998-067XX",
        "meta_object_id": "1998-067XX",
        "meta_epoch": "2025-12-09T02:48:25.040736",
        "meta_mean_motion": 15.51276485,
        "meta_eccentricity": 0.00057034,
        "meta_inclination": 51.6296,
        "meta_ra_of_asc_node": 160.3494,
        "meta_arg_of_pericenter": 191.2268,
        "meta_mean_anomaly": 168.8595,
        "meta_ephemeris_type": 0,
        "meta_classification_type": "U",
        "meta_norad_cat_id": 66911,
        "meta_element_set_no": 999,
        "meta_rev_at_epoch": 104,
        "meta_bstar": 0.0014245982,
        "meta_mean_motion_dot": 0.00085582,
        "meta_mean_motion_ddot": 0,
        "tle_line1": "1 66911U 98067XX  25343.11695649  .00085582  00000+0  14246-2 0  9997",
        "tle_line2": "2 66911  51.6296 160.3494 0005703 191.2268 168.8595 15.51276485  1046"
      },
      "geometry": {
        "type": "Point",
        "coordinates": [
          -42.40251783725069,
          21.78082105231878
        ]
      }
    },
    {
      "type": "Feature",
      "properties": {
        "norad_id": 66912,
        "name": "1998-067XY",
        "group": "last-30-days",
        "lat": 31.687242668546606,
        "lon": -53.19876811614951,
        "alt_km": 409.33899956011464,
        "timestamp": "2025-12-09T23:33:22.610005+00:00",
        "meta_object_name": "1998-067XY",
        "meta_object_id": "1998-067XY",
        "meta_epoch": "2025-12-08T19:07:24.168000",
        "meta_mean_motion": 15.50590071,
        "meta_eccentricity": 0.00050436,
        "meta_inclination": 51.6301,
        "meta_ra_of_asc_node": 161.961,
        "meta_arg_of_pericenter": 202.8278,
        "meta_mean_anomaly": 157.2488,
        "meta_ephemeris_type": 0,
        "meta_classification_type": "U",
        "meta_norad_cat_id": 66912,
        "meta_element_set_no": 999,
        "meta_rev_at_epoch": 99,
        "meta_bstar": 0.0009627216,
        "meta_mean_motion_dot": 0.00056065,
        "meta_mean_motion_ddot": 0,
        "tle_line1": "1 66912U 98067XY  25342.79680750  .00056065  00000+0  96272-3 0  9992",
        "tle_line2": "2 66912  51.6301 161.9610 0005043 202.8278 157.2488 15.50590071   993"
      },
      "geometry": {
        "type": "Point",
        "coordinates": [
          -53.19876811614951,
          31.687242668546606
        ]
      }
    },
    {
      "type": "Feature",
      "properties": {
        "norad_id": 66913,
        "name": "2025-284A",
        "group": "last-30-days",
        "lat": 68.3701733064255,
        "lon": -71.9900857730091,
        "alt_km": 507.29591175832047,
        "timestamp": "2025-12-09T23:33:22.610016+00:00",
        "meta_object_name": "2025-284A",
        "meta_object_id": "2025-284A",
        "meta_epoch": "2025-12-09T15:10:11.985888",
        "meta_mean_motion": 15.18825545,
        "meta_eccentricity": 0.00080906,
        "meta_inclination": 80.4055,
        "meta_ra_of_asc_node": 133.7041,
        "meta_arg_of_pericenter": 256.8468,
        "meta_mean_anomaly": 103.1857,
        "meta_ephemeris_type": 0,
        "meta_classification_type": "U",
        "meta_norad_cat_id": 66913,
        "meta_element_set_no": 999,
        "meta_rev_at_epoch": 65,
        "meta_bstar": 0.00072167487,
        "meta_mean_motion_dot": 0.0001507,
        "meta_mean_motion_ddot": 0,
        "tle_line1": "1 66913U 25284A   25343.63208317  .00015070  00000+0  72167-3 0  9991",
        "tle_line2": "2 66913  80.4055 133.7041 0008090 256.8468 103.1857 15.18825545   654"
      },
      "geometry": {
        "type": "Point",
        "coordinates": [
          -71.9900857730091,
          68.3701733064255
        ]
      }
    }
  ]
}